[{"OBJECT_NAME":"OBJECT K","OBJECT_ID":"2024-205K","EPOCH":"2026-03-09T22:22:01.331040","MEAN_MOTION":15.27932792,"ECCENTRICITY":0.00106729,"INCLINATION":97.417,"RA_OF_ASC_NODE":146.2172,"ARG_OF_PERICENTER":37.4736,"MEAN_ANOMALY":322.7246,"EPHEMERIS_TYPE":0,"CLASSIFICATION_TYPE":"U","NORAD_CAT_ID":61903,"ELEMENT_SET_NO":999,"REV_AT_EPOCH":7347,"BSTAR":0.00067315144,"MEAN_MOTION_DOT":0.00018331,"MEAN_MOTION_DDOT":0},{"OBJECT_NAME":"STARLINK-32943","OBJECT_ID":"2025-032U","EPOCH":"2026-03-09T04:16:08.774112","MEAN_MOTION":15.27596857,"ECCENTRICITY":0.00037679,"INCLINATION":43.0042,"RA_OF_ASC_NODE":338.7751,"ARG_OF_PERICENTER":242.451,"MEAN_ANOMALY":117.5959,"EPHEMERIS_TYPE":0,"CLASSIFICATION_TYPE":"U","NORAD_CAT_ID":63023,"ELEMENT_SET_NO":999,"REV_AT_EPOCH":6054,"BSTAR":0.0008796104,"MEAN_MOTION_DOT":0.00024037,"MEAN_MOTION_DDOT":0}]
